ONEWEB-0201             
1 48241U 21031AH  21223.25001157  .00000014  00000-0  00000+0 0  9991
2 48241  87.8976 281.7695 0009127 250.8469  63.8520 13.48515288 15686
ONEWEB-0207             
1 48242U 21031AJ  21223.25001157  .00000013  00000-0  00000+0 0  9991
2 48242  87.9080 281.7395 0006287 278.2088 223.5070 13.36266995 15619
ONEWEB-0208             
1 48243U 21031AK  21223.25001157  .00000014  00000-0  00000+0 0  9993
2 48243  87.9073 281.7435 0004646 265.5636 307.5675 13.39452238 15627
ONEWEB-0200             
1 48244U 21031AL  21223.25001157  .00000013  00000-0  00000+0 0  9993
2 48244  87.9278 281.7198 0008845 267.3857 231.3136 13.35408773 15550
ONEWEB-0217             
1 48245U 21031AM  21223.25001157 -.00042243  00000-0 -87387-1 0  9992
2 48245  87.9229 281.7338 0004885 289.1374 161.8063 13.32645019 15503
ONEWEB-0211             
1 48767U 21045A   21222.87021962 -.00367554  00000-0 -16659+0 0  9996
2 48767  87.6595 252.5784 0009829  34.9519 325.2316 14.24289845 11287
ONEWEB-0223             
1 48768U 21045B   21223.25001157 -.00048083  00000-0 -25573-1 0  9994
2 48768  87.6490 252.4592 0010797   5.2480 357.8012 14.13860142 12460
ONEWEB-0230             
1 48769U 21045C   21222.90389266 -.00407818  00000-0 -10647+0 0  9995
2 48769  87.8213 252.4957 0005716  37.5817 322.5789 14.51687297 11388
ONEWEB-0237             
1 48770U 21045D   21222.91667824 -.01355574  00000-0 -85406+0 0  9994
2 48770  87.5961 252.5373 0011659  22.0163 273.1463 14.08056740 12360
ONEWEB-0235             
1 48771U 21045E   21222.91667824 -.01365040  00000-0 -84331+0 0  9990
2 48771  87.5988 252.6797 0006936  35.8825 131.8754 14.09187465  3497
ONEWEB-0242             
1 48772U 21045F   21223.16667824 -.01476289  00000-0 -75118+0 0  9990
2 48772  87.6905 252.4871 0011806  25.3105  83.3302 14.19364746 12463
ONEWEB-0241             
1 48773U 21045G   21222.91667824 -.01379373  00000-0 -80566+0 0  9992
2 48773  87.6442 252.5254 0007889  20.8480 128.0749 14.12298758  3529
ONEWEB-0243             
1 48774U 21045H   21222.91667824 -.01396922  00000-0 -92926+0 0  9995
2 48774  87.5793 252.5914 0011675  24.7323 307.0624 14.05160673 12356
ONEWEB-0222             
1 48775U 21045J   21222.91667824 -.01345234  00000-0 -76467+0 0  9998
2 48775  87.6554 252.5366 0011081  17.3239 267.2326 14.13664379 12402
ONEWEB-0244             
1 48776U 21045K   21222.87063706 -.00197757  00000-0 -54964-1 0  9997
2 48776  87.7017 252.5128 0007424  33.4166 326.7506 14.48005532 11338
ONEWEB-0247             
1 48777U 21045L   21222.85932481 -.00385002  00000-0 -22533+0 0  9998
2 48777  87.5897 252.5166 0005905  22.7719 337.3726 14.10757256 11240
ONEWEB-0245             
1 48778U 21045M   21222.84905484 -.00388590  00000-0 -21239+0 0  9998
2 48778  87.6132 252.5611 0013419  22.1030 338.0732 14.14453773 11244
ONEWEB-0229             
1 48779U 21045N   21222.91667824 -.01357323  00000-0 -87050+0 0  9994
2 48779  87.5927 252.5361 0007833  35.9528 217.8963 14.07097747 12377
ONEWEB-0228             
1 48780U 21045P   21222.82439728 -.00306911  00000-0 -18531+0 0  9990
2 48780  87.5706 252.5761 0010996   3.0290 357.0958 14.08880942 11226
ONEWEB-0232             
1 48781U 21045Q   21223.25001157 -.01371319  00000-0 -32729+0 0  9990
2 48781  87.8741 252.2980 0010528  21.0534 100.3276 14.57392781 12575
ONEWEB-0231             
1 48782U 21045R   21222.91667824 -.01372535  00000-0 -86085+0 0  9997
2 48782  87.6035 252.5153 0010009  30.5105 168.9815 14.08362853  3480
ONEWEB-0234             
1 48783U 21045S   21222.91667824 -.01158551  00000-0 -45797+0 0  9993
2 48783  87.6932 252.4814 0009225   8.1042  25.3778 14.32293878  3503
ONEWEB-0238             
1 48784U 21045T   21222.91667824 -.01352956  00000-0 -80946+0 0  9994
2 48784  87.6175 252.5402 0010453  24.1453 161.8293 14.10898302  3480
ONEWEB-0240             
1 48785U 21045U   21222.91667824 -.01417926  00000-0 -75077+0 0  9993
2 48785  87.6560 252.6001 0008234  23.9931 151.4284 14.17115386  3517
ONEWEB-0246             
1 48786U 21045V   21223.25001157  .00000017  00000-0  00000+0 0  9993
2 48786  87.5577 252.4365 0008279  41.9686  32.7293 13.99924241 12374
ONEWEB-0210             
1 48787U 21045W   21223.25001157 -.01424313  00000-0 -96675+0 0  9999
2 48787  87.5838 252.4474 0010140   5.4347 293.0388 14.04123491 12401
ONEWEB-0214             
1 48788U 21045X   21222.91667824 -.01356921  00000-0 -91315+0 0  9996
2 48788  87.5821 252.5593 0006954  32.1089   0.2541 14.04425059 12320
ONEWEB-0221             
1 48789U 21045Y   21222.86839230 -.00388281  00000-0 -19752+0 0  9991
2 48789  87.6379 252.5556 0011955 358.5872   1.5281 14.18311376 11281
ONEWEB-0213             
1 48790U 21045Z   21223.25001157 -.00604403  00000-0 -31881+0 0  9990
2 48790  87.6241 252.4596 0011118   9.1561  77.9871 14.16683811 12455
ONEWEB-0212             
1 48791U 21045AA  21223.25001157 -.01386569  00000-0 -68673+0 0  9991
2 48791  87.6737 252.4432 0011989   6.6921  96.7233 14.21172483 12470
ONEWEB-0227             
1 48792U 21045AB  21222.83334491 -.01385858  00000-0 -88959+0 0  9994
2 48792  87.5708 252.6155 0008127  16.5623 348.0265 14.07128055 12356
ONEWEB-0226             
1 48793U 21045AC  21222.84258292 -.00388798  00000-0 -23736+0 0  9997
2 48793  87.5966 252.5436 0012972  40.5078 319.7068 14.08437605 11224
ONEWEB-0224             
1 48794U 21045AD  21223.25001157 -.00562082  00000-0 -36837+0 0  9996
2 48794  87.5668 252.4180 0008389  17.5929  76.7315 14.04654129 12353
ONEWEB-0233             
1 48795U 21045AE  21222.91667824 -.01312723  00000-0 -87936+0 0  9990
2 48795  87.5800 252.4818 0007289  38.2229 243.8364 14.04555287 12313
ONEWEB-0190             
1 48796U 21045AF  21222.85305596 -.00389363  00000-0 -22008+0 0  9991
2 48796  87.6023 252.5257 0012689  37.1335 323.0725 14.12647378 11230
ONEWEB-0236             
1 48797U 21045AG  21223.16667824  .00000017  00000-0  00000+0 0  9994
2 48797  87.5724 252.4337 0008581  39.2243  85.7242 13.98415139 12354
ONEWEB-0248             
1 48798U 21045AH  21222.91667824 -.01412974  00000-0 -72612+0 0  9997
2 48798  87.6713 252.5521 0010301  24.7986 105.7909 14.18693488  3504
ONEWEB-0225             
1 48799U 21045AJ  21223.25001157 -.01473823  00000-0 -72590+0 0  9992
2 48799  87.6842 252.4408 0008239  34.0939 227.1452 14.21109598 12476
ONEWEB-0215             
1 48800U 21045AK  21222.91667824 -.01292846  00000-0 -82386+0 0  9994
2 48800  87.6196 252.5008 0009397  34.2229  98.7387 14.07263161 12333
ONEWEB-0216             
1 48801U 21045AL  21223.16667824 -.01500068  00000-0 -99156+0 0  9994
2 48801  87.5364 252.4978 0008803  34.6106  70.5439 14.05185090 12365
ONEWEB-0239             
1 48802U 21045AM  21223.09043335 -.00273495  00000-0 -14823+0 0  9990
2 48802  87.5806 252.6474 0010367  33.0847 327.0986 14.14505427 12382
ONEWEB-0249             
1 48967U 21060A   21223.25001157 -.01423495  00000-0 -30662+0 0  9990
2 48967  87.5194 223.6655 0008860 120.8803 191.8562 14.62212541  7459
ONEWEB-0250             
1 48968U 21060B   21222.91667824 -.01381227  00000-0 -30786+0 0  9995
2 48968  87.5048 223.7592 0009708 107.5333  26.1862 14.60549551  3575
ONEWEB-0251             
1 48969U 21060C   21223.25001157 -.00010893  00000-0 -34669-3 0  9990
2 48969  87.4178 223.0192 0012717 125.3475  58.1753 15.32712379  7520
ONEWEB-0252             
1 48970U 21060D   21223.25001157 -.01349848  00000-0 -23326+0 0  9992
2 48970  87.5327 223.6101 0013226 120.0684 116.2656 14.71720597  7469
ONEWEB-0253             
1 48971U 21060E   21223.16667824 -.01438858  00000-0 -31393+0 0  9995
2 48971  87.5090 223.6648 0009821 106.6285  44.3631 14.61663528  7425
ONEWEB-0254             
1 48972U 21060F   21223.25001157 -.01403519  00000-0 -33064+0 0  9990
2 48972  87.4999 223.6647 0013305 123.8895  65.0470 14.58042374  7430
ONEWEB-0255             
1 48973U 21060G   21223.25001157 -.01354600  00000-0 -21943+0 0  9990
2 48973  87.5377 223.6129 0008578 114.5644 101.7543 14.74572840  7468
ONEWEB-0256             
1 48974U 21060H   21223.25001157 -.01377650  00000-0 -26776+0 0  9990
2 48974  87.5495 223.6512 0013911 119.6052 122.2132 14.66628516  7456
ONEWEB-0257             
1 48975U 21060J   21222.82714828 -.00428686  00000-0 -86783-1 0  9990
2 48975  87.5020 223.8112 0011205 102.8042 257.4424 14.63817892  6106
ONEWEB-0258             
1 48976U 21060K   21223.25001157 -.01425485  00000-0 -33357+0 0  9995
2 48976  87.4917 223.6641 0010176 111.2472  31.5489 14.58443491  7436
ONEWEB-0259             
1 48977U 21060L   21222.91667824 -.01344020  00000-0 -26809+0 0  9996
2 48977  87.5384 223.7317 0013930 122.9108 109.2083 14.65392967  3611
ONEWEB-0260             
1 48978U 21060M   21223.25001157 -.01371078  00000-0 -28895+0 0  9996
2 48978  87.5245 223.6400 0009225 109.2982 151.2263 14.63057190  7435
ONEWEB-0261             
1 48979U 21060N   21223.25001157 -.01316380  00000-0 -21402+0 0  9999
2 48979  87.5336 223.5944 0012670 120.4064 191.5639 14.74278601  7464
ONEWEB-0262             
1 48980U 21060P   21223.25001157 -.01429133  00000-0 -29969+0 0  9998
2 48980  87.5312 223.6658 0010787 118.8965 301.9738 14.63411673  7453
ONEWEB-0263             
1 48981U 21060Q   21223.25001157 -.01429759  00000-0 -33143+0 0  9992
2 48981  87.4997 223.6682 0010538 106.1707 290.1539 14.58881493  7449
ONEWEB-0264             
1 48982U 21060R   21223.25001157 -.01399936  00000-0 -34070+0 0  9996
2 48982  87.4761 223.6578 0011169 127.3307 288.9026 14.56564889  7424
ONEWEB-0265             
1 48983U 21060S   21222.91667824  .00064784  00000-0  15683-2 0  9997
2 48983  87.3967 223.0357 0009424 116.9857 188.5685 15.40818406  3621
ONEWEB-0266             
1 48984U 21060T   21223.25001157 -.01403038  00000-0 -32042+0 0  9994
2 48984  87.5131 223.6577 0013158 123.9727 190.4210 14.59460946  7441
